STARLINK-35762          
1 67172U 25303K   26182.86768755  .00035664  00000+0  12978-2 0  9999
2 67172  43.0016  26.2098 0001159 281.1699  78.9022 15.27616959 30190
STARLINK-36183          
1 67173U 25303L   26182.85998408  .00032651  00000+0  11904-2 0  9990
2 67173  43.0015  26.1524 0001337 259.0369 101.0333 15.27589906 30193
STARLINK-36210          
1 67174U 25303M   26182.85355512  .00019518  00000+0  71629-3 0  9992
2 67174  43.0031  26.1044 0000332 252.4653 107.6162 15.27609238 30199
STARLINK-35756          
1 67175U 25303N   26182.85100927  .00032481  00000+0  11852-2 0  9996
2 67175  42.9996  26.0799 0001510 268.7284  91.3394 15.27563976 30197
STARLINK-35785          
1 67176U 25303P   26182.84584453  .00035788  00000+0  13017-2 0  9994
2 67176  43.0011  26.0393 0001219 264.4110  95.6603 15.27630988 30193
STARLINK-35853          
1 67177U 25303Q   26182.84969996  .00020462  00000+0  75037-3 0  9998
2 67177  42.9976  26.0669 0000186 229.0547 131.0289 15.27608831 30198
STARLINK-35878          
1 67178U 25303R   26182.84198784  .00021103  00000+0  77361-3 0  9993
2 67178  43.0018  26.0093 0002270 284.9097  75.1503 15.27604177 30191
STARLINK-35793          
1 67179U 25303S   26182.83943968  .00028159  00000+0  10287-2 0  9996
2 67179  43.0003  25.9893 0000744 246.5831 113.4942 15.27585227 30193
STARLINK-35876          
1 67180U 25303T   26182.83813407  .00033283  00000+0  12121-2 0  9995
2 67180  43.0013  25.9783 0001412 266.6162  93.4528 15.27618052 30197
STARLINK-35766          
1 67181U 25303U   26182.82785638  .00020135  00000+0  73883-3 0  9994
2 67181  43.0042  25.9034 0001511 264.1362  95.9317 15.27596940 30198
STARLINK-35782          
1 67182U 25303V   26182.62142004  .00022589  00000+0  82757-3 0  9992
2 67182  43.0032  26.9317 0001210 260.5157  99.5558 15.27592556 30164
STARLINK-35719          
1 67183U 25303W   26182.62784312  .00027680  00000+0  10108-2 0  9994
2 67183  43.0031  26.9783 0001341 255.3996 104.6707 15.27607051 30160
STARLINK-35910          
1 67184U 25303X   26182.61756514  .00019924  00000+0  73123-3 0  9996
2 67184  43.0028  26.9016 0001434 268.4317  91.6371 15.27596550 30164
STARLINK-35859          
1 67185U 25303Y   26182.62270312  .00024759  00000+0  90587-3 0  9990
2 67185  43.0025  26.9387 0001232 266.1532  93.9179 15.27592459 30168
STARLINK-35857          
1 67186U 25303Z   26182.83428254  .00021994  00000+0  80522-3 0  9990
2 67186  42.9985  25.9434 0001209 223.3960 136.6797 15.27627801 30192
STARLINK-35880          
1 67187U 25303AA  26182.63041147  .00022048  00000+0  80760-3 0  9996
2 67187  43.0013  26.9955 0001337 251.8841 108.1865 15.27609363 30162
STARLINK-35675          
1 67188U 25303AB  26182.61642497  .00027420  00000+0  10017-2 0  9996
2 67188  42.9987  27.7543 0000900 262.0545  98.0205 15.27597077 30155
STARLINK-35889          
1 67189U 25303AC  26182.87154254  .00022974  00000+0  84122-3 0  9992
2 67189  43.0014  26.2298 0001297 274.2886  85.7817 15.27601793 30190
STARLINK-35888          
1 67190U 25303AD  26182.92664787  .00016953  00000+0  62374-3 0  9992
2 67190  43.0009  25.7847 0001259 277.3213  82.7496 15.27602694 30209
STARLINK-35716          
1 67191U 25303AE  26182.87668273  .00028471  00000+0  10394-2 0  9993
2 67191  43.0022  26.2668 0001309 270.8406  89.2296 15.27603014 30195
STARLINK-36182          
1 67192U 25304A   26182.90983373  .00003327  00000+0  28645-3 0  9992
2 67192  69.9994 246.4747 0003672 269.3222  90.7516 14.98337183 30964
STARLINK-36279          
1 67193U 25304B   26182.90548250  .00004970  00000+0  42382-3 0  9993
2 67193  69.9999 246.4535 0003896 267.7834  92.2879 14.98346521 30992
STARLINK-36284          
1 67194U 25304C   26182.92636492  .00002628  00000+0  22792-3 0  9993
2 67194  70.0003 246.5318 0003574 268.8981  91.1768 14.98335948 30996
STARLINK-36291          
1 67195U 25304D   26182.87646647  .00002214  00000+0  19326-3 0  9991
2 67195  70.0004 246.7545 0003630 270.3963  89.6780 14.98336294 30983
STARLINK-36239          
1 67196U 25304E   26182.47156702  .00002631  00000+0  22817-3 0  9998
2 67196  70.0004 247.7550 0003747 270.0400  90.0329 14.98336638 30924
STARLINK-36283          
1 67197U 25304F   26182.88879580  .00001743  00000+0  15382-3 0  9992
2 67197  70.0003 246.3952 0003695 268.1887  91.8849 14.98335345 30991
STARLINK-36267          
1 67198U 25304G   26182.91801661  .00003392  00000+0  29191-3 0  9997
2 67198  70.0000 246.4986 0003637 269.0321  91.0422 14.98336546 30966
STARLINK-36268          
1 67199U 25304H   26182.92653070  .00002706  00000+0  23442-3 0  9999
2 67199  70.0006 246.5259 0003524 269.3359  90.7396 14.98336227 30980
STARLINK-36270          
1 67200U 25304J   26182.90148462  .00002817  00000+0  24371-3 0  9999
2 67200  70.0003 246.4471 0003487 270.0182  90.0577 14.98337034 30998
STARLINK-36262          
1 67201U 25304K   26182.60092242  .00001681  00000+0  14868-3 0  9999
2 67201  70.0003 247.4004 0003721 268.9905  91.0827 14.98328120 30942
