OBJECT_NAME,OBJECT_ID,EPOCH,MEAN_MOTION,ECCENTRICITY,INCLINATION,RA_OF_ASC_NODE,ARG_OF_PERICENTER,MEAN_ANOMALY,EPHEMERIS_TYPE,CLASSIFICATION_TYPE,NORAD_CAT_ID,ELEMENT_SET_NO,REV_AT_EPOCH,BSTAR,MEAN_MOTION_DOT,MEAN_MOTION_DDOT
STARLINK-35762,2025-303K,2026-07-01T20:49:28.204320,15.27616959,.00011596,43.0016,26.2098,281.1699,78.9022,0,U,67172,999,3019,.12978274E-2,.35664E-3,0
STARLINK-36183,2025-303L,2026-07-01T20:38:22.624512,15.27589906,.00013371,43.0015,26.1524,259.0369,101.0333,0,U,67173,999,3019,.11904325E-2,.32651E-3,0
STARLINK-36210,2025-303M,2026-07-01T20:29:07.162368,15.27609238,.00003326,43.0031,26.1044,252.4653,107.6162,0,U,67174,999,3019,.71628903E-3,.19518E-3,0
STARLINK-35756,2025-303N,2026-07-01T20:25:27.200928,15.27563976,.00015103,42.9996,26.0799,268.7284,91.3394,0,U,67175,999,3019,.11852198E-2,.32481E-3,0
STARLINK-35785,2025-303P,2026-07-01T20:18:00.967392,15.27630988,.00012191,43.0011,26.0393,264.4110,95.6603,0,U,67176,999,3019,.13017015E-2,.35788E-3,0
STARLINK-35853,2025-303Q,2026-07-01T20:23:34.076544,15.27608831,.0000186,42.9976,26.0669,229.0547,131.0289,0,U,67177,999,3019,.75037375E-3,.20462E-3,0
STARLINK-35878,2025-303R,2026-07-01T20:12:27.749376,15.27604177,.00022702,43.0018,26.0093,284.9097,75.1503,0,U,67178,999,3019,.77360755E-3,.21103E-3,0
STARLINK-35793,2025-303S,2026-07-01T20:08:47.588352,15.27585227,.00007449,43.0003,25.9893,246.5831,113.4942,0,U,67179,999,3019,.10287475E-2,.28159E-3,0
STARLINK-35876,2025-303T,2026-07-01T20:06:54.783648,15.27618052,.0001412,43.0013,25.9783,266.6162,93.4528,0,U,67180,999,3019,.12121396E-2,.33283E-3,0
STARLINK-35766,2025-303U,2026-07-01T19:52:06.791232,15.27596940,.00015119,43.0042,25.9034,264.1362,95.9317,0,U,67181,999,3019,.73882859E-3,.20135E-3,0
STARLINK-35782,2025-303V,2026-07-01T14:54:50.691456,15.27592556,.00012102,43.0032,26.9317,260.5157,99.5558,0,U,67182,999,3016,.82756599E-3,.22589E-3,0
STARLINK-35719,2025-303W,2026-07-01T15:04:05.645568,15.27607051,.00013418,43.0031,26.9783,255.3996,104.6707,0,U,67183,999,3016,.10107752E-2,.2768E-3,0
STARLINK-35910,2025-303X,2026-07-01T14:49:17.628096,15.27596550,.00014342,43.0028,26.9016,268.4317,91.6371,0,U,67184,999,3016,.73122933E-3,.19924E-3,0
STARLINK-35859,2025-303Y,2026-07-01T14:56:41.549568,15.27592459,.00012326,43.0025,26.9387,266.1532,93.9179,0,U,67185,999,3016,.90586981E-3,.24759E-3,0
STARLINK-35857,2025-303Z,2026-07-01T20:01:22.011456,15.27627801,.00012096,42.9985,25.9434,223.3960,136.6797,0,U,67186,999,3019,.80521915E-3,.21994E-3,0
STARLINK-35880,2025-303AA,2026-07-01T15:07:47.551008,15.27609363,.00013378,43.0013,26.9955,251.8841,108.1865,0,U,67187,999,3016,.80759783E-3,.22048E-3,0
STARLINK-35675,2025-303AB,2026-07-01T14:47:39.117408,15.27597077,.00009006,42.9987,27.7543,262.0545,98.0205,0,U,67188,999,3015,.10017186E-2,.2742E-3,0
STARLINK-35889,2025-303AC,2026-07-01T20:55:01.275456,15.27601793,.00012971,43.0014,26.2298,274.2886,85.7817,0,U,67189,999,3019,.84121545E-3,.22974E-3,0
STARLINK-35888,2025-303AD,2026-07-01T22:14:22.375968,15.27602694,.00012591,43.0009,25.7847,277.3213,82.7496,0,U,67190,999,3020,.62374066E-3,.16953E-3,0
STARLINK-35716,2025-303AE,2026-07-01T21:02:25.387872,15.27603014,.00013093,43.0022,26.2668,270.8406,89.2296,0,U,67191,999,3019,.10394216E-2,.28471E-3,0
STARLINK-36182,2025-304A,2026-07-01T21:50:09.634272,14.98337183,.00036727,69.9994,246.4747,269.3222,90.7516,0,U,67192,999,3096,.28644972E-3,.3327E-4,0
STARLINK-36279,2025-304B,2026-07-01T21:43:53.688000,14.98346521,.00038965,69.9999,246.4535,267.7834,92.2879,0,U,67193,999,3099,.42382173E-3,.497E-4,0
STARLINK-36284,2025-304C,2026-07-01T22:13:57.929088,14.98335948,.00035742,70.0003,246.5318,268.8981,91.1768,0,U,67194,999,3099,.22792334E-3,.2628E-4,0
STARLINK-36291,2025-304D,2026-07-01T21:02:06.703008,14.98336294,.00036307,70.0004,246.7545,270.3963,89.6780,0,U,67195,999,3098,.193256E-3,.2214E-4,0
STARLINK-36239,2025-304E,2026-07-01T11:19:03.390528,14.98336638,.0003747,70.0004,247.7550,270.0400,90.0329,0,U,67196,999,3092,.22816524E-3,.2631E-4,0
STARLINK-36283,2025-304F,2026-07-01T21:19:51.957120,14.98335345,.00036956,70.0003,246.3952,268.1887,91.8849,0,U,67197,999,3099,.15382421E-3,.1743E-4,0
STARLINK-36267,2025-304G,2026-07-01T22:01:56.635104,14.98336546,.00036373,70.0000,246.4986,269.0321,91.0422,0,U,67198,999,3096,.29190502E-3,.3392E-4,0
STARLINK-36268,2025-304H,2026-07-01T22:14:12.252480,14.98336227,.00035241,70.0006,246.5259,269.3359,90.7396,0,U,67199,999,3098,.23441843E-3,.2706E-4,0
STARLINK-36270,2025-304J,2026-07-01T21:38:08.271168,14.98337034,.00034875,70.0003,246.4471,270.0182,90.0577,0,U,67200,999,3099,.24371383E-3,.2817E-4,0
STARLINK-36262,2025-304K,2026-07-01T14:25:19.697088,14.98328120,.00037218,70.0003,247.4004,268.9905,91.0827,0,U,67201,999,3094,.14867877E-3,.1681E-4,0
